[{"OBJECT_NAME":"TIANMU-1 10","OBJECT_ID":"2023-101D","EPOCH":"2026-03-09T23:06:46.939392","MEAN_MOTION":15.2921896,"ECCENTRICITY":0.00069292,"INCLINATION":97.2749,"RA_OF_ASC_NODE":122.1027,"ARG_OF_PERICENTER":133.6162,"MEAN_ANOMALY":226.5654,"EPHEMERIS_TYPE":0,"CLASSIFICATION_TYPE":"U","NORAD_CAT_ID":57402,"ELEMENT_SET_NO":999,"REV_AT_EPOCH":14647,"BSTAR":0.00032238884,"MEAN_MOTION_DOT":9.075e-5,"MEAN_MOTION_DDOT":0},{"OBJECT_NAME":"STARLINK-31575","OBJECT_ID":"2024-068S","EPOCH":"2026-03-09T07:11:08.114208","MEAN_MOTION":15.27570718,"ECCENTRICITY":0.00014864,"INCLINATION":43.0058,"RA_OF_ASC_NODE":33.2061,"ARG_OF_PERICENTER":252.8034,"MEAN_ANOMALY":107.2655,"EPHEMERIS_TYPE":0,"CLASSIFICATION_TYPE":"U","NORAD_CAT_ID":59471,"ELEMENT_SET_NO":999,"REV_AT_EPOCH":10850,"BSTAR":-5.8305001e-5,"MEAN_MOTION_DOT":-1.866e-5,"MEAN_MOTION_DDOT":0}]
